[{"OBJECT_NAME":"AEROCUBE 6A","OBJECT_ID":"2014-033AM","EPOCH":"2026-03-09T22:20:23.815680","MEAN_MOTION":14.96848607,"ECCENTRICITY":0.00387302,"INCLINATION":97.7128,"RA_OF_ASC_NODE":237.0691,"ARG_OF_PERICENTER":349.0559,"MEAN_ANOMALY":10.9816,"EPHEMERIS_TYPE":0,"CLASSIFICATION_TYPE":"U","NORAD_CAT_ID":40045,"ELEMENT_SET_NO":999,"REV_AT_EPOCH":63176,"BSTAR":0.00067890448,"MEAN_MOTION_DOT":7.845e-5,"MEAN_MOTION_DDOT":0},{"OBJECT_NAME":"STARLINK-5538","OBJECT_ID":"2023-058AS","EPOCH":"2026-03-09T23:22:38.936064","MEAN_MOTION":15.05646412,"ECCENTRICITY":0.00018711,"INCLINATION":97.604,"RA_OF_ASC_NODE":71.5649,"ARG_OF_PERICENTER":86.2695,"MEAN_ANOMALY":273.8745,"EPHEMERIS_TYPE":0,"CLASSIFICATION_TYPE":"U","NORAD_CAT_ID":56357,"ELEMENT_SET_NO":999,"REV_AT_EPOCH":15824,"BSTAR":-1.2001266e-5,"MEAN_MOTION_DOT":-2.34e-6,"MEAN_MOTION_DDOT":0}]
