AEROCUBE 6A             
1 40045U 14033AM  26068.93083119  .00007845  00000+0  67890-3 0  9996
2 40045  97.7128 237.0691 0038730 349.0559  10.9816 14.96848607631764
STARLINK-5538           
1 56357U 23058AS  26068.97406176 -.00000234  00000+0 -12001-4 0  9994
2 56357  97.6040  71.5649 0001871  86.2695 273.8745 15.05646412158249
